0 TDRS 9
1 27389U 02011A   13282.30664514 -.00000272  00000-0  10000-3 0  2470
2 27389 002.4793 107.2948 0008218 290.9432 049.3532 01.00272979 43971
0 TDRS 9
1 27389U 02011A   13284.19678946 -.00000278  00000-0  10000-3 0  2480
2 27389 002.4831 107.2460 0008416 289.8495 012.8084 01.00271913 43995
0 TDRS 9
1 27389U 02011A   13285.20562499 -.00000281  00000-0  10000-3 0  2493
2 27389 002.4842 107.2326 0008468 289.6525 017.1906 01.00271369 44006
0 TDRS 9
1 27389U 02011A   13286.02698082 -.00000282  00000-0  10000-3 0  2505
2 27389 002.4870 107.1989 0007714 294.7972 308.5834 01.00270742 44019
0 TDRS 9
1 27389U 02011A   13289.19911120 -.00000281  00000-0  10000-3 0  2517
2 27389 002.4923 107.0803 0011867 329.3734 339.2767 01.00270353 44044
0 TDRS 9
1 27389U 02011A   13290.20643493 -.00000280  00000-0  10000-3 0  2526
2 27389 002.4962 106.9392 0006863 271.7548 040.5714 01.00270762 44050
0 TDRS 9
1 27389U 02011A   13290.89655667 -.00000279  00000-0  10000-3 0  2536
2 27389 002.4980 106.9142 0007663 288.9612 272.5229 01.00269776 44066
0 TDRS 9
1 27389U 02011A   13291.93361789 -.00000277  00000-0  10000-3 0  2540
2 27389 002.5017 106.8680 0007856 289.1692 286.7249 01.00270526 44074
0 TDRS 9
1 27389U 02011A   13293.05873331 -.00000275  00000-0  10000-3 0  2555
2 27389 002.5036 106.8524 0007863 289.2282 332.8259 01.00270160 44085
0 TDRS 9
1 27389U 02011A   13294.20219399 -.00000273  00000-0  10000-3 0  2560
2 27389 002.5048 106.8163 0007652 288.8323 026.0186 01.00269588 44098
0 TDRS 9
1 27389U 02011A   13295.21216259 -.00000272  00000-0  10000-3 0  2574
2 27389 002.5071 106.7735 0007436 287.9969 031.4708 01.00269155 44106
